STARLINK-30321          
1 57679U 23124S   26068.64112462 -.00001972  00000+0 -54516-4 0  9999
2 57679  53.1605 206.8257 0001288  63.9534 296.1599 15.30168647143566
HYPERFIELD-1A           
1 60562U 24149CY  26068.76488211  .00008569  00000+0  30052-3 0  9998
2 60562  97.3842 149.5066 0003865 313.7844  46.3076 15.29681349 86836
